{
  "type": "FeatureCollection",
  "features": [
    {
      "type": "Feature",
      "properties": {
        "name": "Ariana",
        "name_ar": "أريانة"
      },
      "geometry": {
        "type": "Polygon",
        "coordinates": [
          [
            [
              10.1944,
              36.9953
            ],
            [
              10.2167,
              36.9897
            ],
            [
              10.2514,
              36.9781
            ],
            [
              10.2789,
              36.9542
            ],
            [
              10.3086,
              36.9319
            ],
            [
              10.3319,
              36.9186
            ],
            [
              10.3486,
              36.9097
            ],
            [
              10.3542,
              36.8986
            ],
            [
              10.3458,
              36.8875
            ],
            [
              10.3236,
              36.8736
            ],
            [
              10.2958,
              36.8653
            ],
            [
              10.2681,
              36.8625
            ],
            [
              10.2375,
              36.8597
            ],
            [
              10.2111,
              36.8597
            ],
            [
              10.1875,
              36.8681
            ],
            [
              10.1625,
              36.8792
            ],
            [
              10.1417,
              36.8931
            ],
            [
              10.1264,
              36.9042
            ],
            [
              10.1097,
              36.9208
            ],
            [
              10.0986,
              36.9375
            ],
            [
              10.0958,
              36.9542
            ],
            [
              10.1083,
              36.9681
            ],
            [
              10.1278,
              36.9792
            ],
            [
              10.1556,
              36.9903
            ],
            [
              10.1944,
              36.9953
            ]
          ]
        ]
      }
    },
    {
      "type": "Feature",
      "properties": {
        "name": "Tunis",
        "name_ar": "تونس"
      },
      "geometry": {
        "type": "Polygon",
        "coordinates": [
          [
            [
              10.1625,
              36.8792
            ],
            [
              10.1875,
              36.8681
            ],
            [
              10.2111,
              36.8597
            ],
            [
              10.2375,
              36.8597
            ],
            [
              10.2681,
              36.8625
            ],
            [
              10.2958,
              36.8653
            ],
            [
              10.3236,
              36.8736
            ],
            [
              10.3458,
              36.8875
            ],
            [
              10.3542,
              36.8792
            ],
            [
              10.3583,
              36.8653
            ],
            [
              10.3528,
              36.8514
            ],
            [
              10.3375,
              36.8347
            ],
            [
              10.3153,
              36.8208
            ],
            [
              10.2875,
              36.8097
            ],
            [
              10.2583,
              36.8014
            ],
            [
              10.2292,
              36.7958
            ],
            [
              10.2028,
              36.7931
            ],
            [
              10.1792,
              36.7931
            ],
            [
              10.1556,
              36.7972
            ],
            [
              10.1361,
              36.8069
            ],
            [
              10.1181,
              36.8181
            ],
            [
              10.1014,
              36.8306
            ],
            [
              10.0903,
              36.8431
            ],
            [
              10.0986,
              36.8569
            ],
            [
              10.1139,
              36.8681
            ],
            [
              10.1417,
              36.8931
            ],
            [
              10.1625,
              36.8792
            ]
          ]
        ]
      }
    },
    {
      "type": "Feature",
      "properties": {
        "name": "Ben Arous",
        "name_ar": "بن عروس"
      },
      "geometry": {
        "type": "Polygon",
        "coordinates": [
          [
            [
              10.0903,
              36.8431
            ],
            [
              10.1014,
              36.8306
            ],
            [
              10.1181,
              36.8181
            ],
            [
              10.1361,
              36.8069
            ],
            [
              10.1556,
              36.7972
            ],
            [
              10.1792,
              36.7931
            ],
            [
              10.2028,
              36.7931
            ],
            [
              10.2292,
              36.7958
            ],
            [
              10.2583,
              36.8014
            ],
            [
              10.2875,
              36.8097
            ],
            [
              10.3153,
              36.8208
            ],
            [
              10.3375,
              36.8347
            ],
            [
              10.3528,
              36.8514
            ],
            [
              10.3583,
              36.8653
            ],
            [
              10.3736,
              36.8528
            ],
            [
              10.3903,
              36.8347
            ],
            [
              10.4028,
              36.8125
            ],
            [
              10.4097,
              36.7875
            ],
            [
              10.4069,
              36.7625
            ],
            [
              10.3944,
              36.7403
            ],
            [
              10.3736,
              36.7208
            ],
            [
              10.3486,
              36.7042
            ],
            [
              10.3208,
              36.6917
            ],
            [
              10.2903,
              36.6833
            ],
            [
              10.2597,
              36.6806
            ],
            [
              10.2292,
              36.6819
            ],
            [
              10.2,
              36.6875
            ],
            [
              10.1736,
              36.6972
            ],
            [
              10.15,
              36.7097
            ],
            [
              10.1292,
              36.725
            ],
            [
              10.1111,
              36.7431
            ],
            [
              10.0986,
              36.7625
            ],
            [
              10.0944,
              36.7833
            ],
            [
              10.0986,
              36.8042
            ],
            [
              10.0903,
              36.8431
            ]
          ]
        ]
      }
    },
    {
      "type": "Feature",
      "properties": {
        "name": "Manouba",
        "name_ar": "منوبة"
      },
      "geometry": {
        "type": "Polygon",
        "coordinates": [
          [
            [
              10.0208,
              36.9208
            ],
            [
              10.0403,
              36.9097
            ],
            [
              10.0625,
              36.9014
            ],
            [
              10.0903,
              36.9014
            ],
            [
              10.1097,
              36.9208
            ],
            [
              10.1264,
              36.9042
            ],
            [
              10.1417,
              36.8931
            ],
            [
              10.1139,
              36.8681
            ],
            [
              10.0986,
              36.8569
            ],
            [
              10.0903,
              36.8431
            ],
            [
              10.0764,
              36.8292
            ],
            [
              10.0583,
              36.8181
            ],
            [
              10.0375,
              36.8111
            ],
            [
              10.0139,
              36.8083
            ],
            [
              9.9903,
              36.8097
            ],
            [
              9.9681,
              36.8153
            ],
            [
              9.9486,
              36.825
            ],
            [
              9.9347,
              36.8375
            ],
            [
              9.9264,
              36.8528
            ],
            [
              9.925,
              36.8694
            ],
            [
              9.9319,
              36.8861
            ],
            [
              9.9458,
              36.9
            ],
            [
              9.9653,
              36.9111
            ],
            [
              9.9889,
              36.9181
            ],
            [
              10.0139,
              36.9208
            ],
            [
              10.0208,
              36.9208
            ]
          ]
        ]
      }
    },
    {
      "type": "Feature",
      "properties": {
        "name": "Nabeul",
        "name_ar": "نابل"
      },
      "geometry": {
        "type": "Polygon",
        "coordinates": [
          [
            [
              10.7222,
              37.0861
            ],
            [
              10.75,
              37.0736
            ],
            [
              10.7736,
              37.0556
            ],
            [
              10.7917,
              37.0333
            ],
            [
              10.8042,
              37.0069
            ],
            [
              10.8097,
              36.9792
            ],
            [
              10.8069,
              36.9514
            ],
            [
              10.7972,
              36.925
            ],
            [
              10.7806,
              36.9014
            ],
            [
              10.7583,
              36.8819
            ],
            [
              10.7319,
              36.8667
            ],
            [
              10.7028,
              36.8556
            ],
            [
              10.6722,
              36.8486
            ],
            [
              10.6417,
              36.8458
            ],
            [
              10.6111,
              36.8472
            ],
            [
              10.5819,
              36.8528
            ],
            [
              10.5556,
              36.8625
            ],
            [
              10.5333,
              36.8764
            ],
            [
              10.5153,
              36.8931
            ],
            [
              10.4972,
              36.9111
            ],
            [
              10.4806,
              36.9306
            ],
            [
              10.4653,
              36.9514
            ],
            [
              10.4528,
              36.9736
            ],
            [
              10.4431,
              36.9972
            ],
            [
              10.4375,
              37.0222
            ],
            [
              10.4375,
              37.0472
            ],
            [
              10.4431,
              37.0708
            ],
            [
              10.4542,
              37.0917
            ],
            [
              10.4708,
              37.1097
            ],
            [
              10.4917,
              37.1236
            ],
            [
              10.5153,
              37.1333
            ],
            [
              10.5403,
              37.1389
            ],
            [
              10.5667,
              37.1403
            ],
            [
              10.5931,
              37.1375
            ],
            [
              10.6181,
              37.1306
            ],
            [
              10.6417,
              37.1194
            ],
            [
              10.6625,
              37.1042
            ],
            [
              10.6806,
              37.0861
            ],
            [
              10.6944,
              37.0653
            ],
            [
              10.7042,
              37.0431
            ],
            [
              10.7097,
              37.0194
            ],
            [
              10.7097,
              36.9958
            ],
            [
              10.7042,
              36.9736
            ],
            [
              10.6931,
              36.9528
            ],
            [
              10.6778,
              36.9347
            ],
            [
              10.6583,
              36.9194
            ],
            [
              10.6361,
              36.9083
            ],
            [
              10.6111,
              36.9014
            ],
            [
              10.5861,
              36.8986
            ],
            [
              10.5611,
              36.9
            ],
            [
              10.5375,
              36.9056
            ],
            [
              10.5167,
              36.9153
            ],
            [
              10.4986,
              36.9292
            ],
            [
              10.4847,
              36.9458
            ],
            [
              10.4764,
              36.9639
            ],
            [
              10.4736,
              36.9833
            ],
            [
              10.4764,
              37.0028
            ],
            [
              10.4847,
              37.0208
            ],
            [
              10.4986,
              37.0375
            ],
            [
              10.5181,
              37.0514
            ],
            [
              10.5417,
              37.0625
            ],
            [
              10.5681,
              37.0694
            ],
            [
              10.5958,
              37.0722
            ],
            [
              10.6236,
              37.0708
            ],
            [
              10.65,
              37.0653
            ],
            [
              10.675,
              37.0556
            ],
            [
              10.6972,
              37.0417
            ],
            [
              10.7153,
              37.025
            ],
            [
              10.7278,
              37.0056
            ],
            [
              10.7347,
              36.9847
            ],
            [
              10.7361,
              36.9625
            ],
            [
              10.7319,
              36.9403
            ],
            [
              10.7222,
              36.9194
            ],
            [
              10.7083,
              36.9
            ],
            [
              10.6903,
              36.8833
            ],
            [
              10.6694,
              36.8694
            ],
            [
              10.7222,
              37.0861
            ]
          ]
        ]
      }
    },
    {
      "type": "Feature",
      "properties": {
        "name": "Bizerte",
        "name_ar": "بنزرت"
      },
      "geometry": {
        "type": "Polygon",
        "coordinates": [
          [
            [
              9.5333,
              37.3472
            ],
            [
              9.5694,
              37.375
            ],
            [
              9.6083,
              37.3972
            ],
            [
              9.65,
              37.4139
            ],
            [
              9.6931,
              37.4236
            ],
            [
              9.7375,
              37.4264
            ],
            [
              9.7819,
              37.4222
            ],
            [
              9.8236,
              37.4111
            ],
            [
              9.8625,
              37.3944
            ],
            [
              9.8972,
              37.3722
            ],
            [
              9.9264,
              37.3458
            ],
            [
              9.95,
              37.3153
            ],
            [
              9.9667,
              37.2819
            ],
            [
              9.9764,
              37.2472
            ],
            [
              9.9792,
              37.2111
            ],
            [
              9.975,
              37.175
            ],
            [
              9.9639,
              37.1403
            ],
            [
              9.9458,
              37.1083
            ],
            [
              9.9222,
              37.0806
            ],
            [
              9.8944,
              37.0569
            ],
            [
              9.8625,
              37.0375
            ],
            [
              9.8278,
              37.0222
            ],
            [
              9.7917,
              37.0111
            ],
            [
              9.7542,
              37.0042
            ],
            [
              9.7167,
              37.0014
            ],
            [
              9.6806,
              37.0028
            ],
            [
              9.6458,
              37.0083
            ],
            [
              9.6139,
              37.0181
            ],
            [
              9.5847,
              37.0319
            ],
            [
              9.5597,
              37.0486
            ],
            [
              9.5389,
              37.0694
            ],
            [
              9.5236,
              37.0931
            ],
            [
              9.5139,
              37.1181
            ],
            [
              9.5097,
              37.1444
            ],
            [
              9.5111,
              37.1708
            ],
            [
              9.5181,
              37.1972
            ],
            [
              9.5306,
              37.2222
            ],
            [
              9.5472,
              37.2444
            ],
            [
              9.5681,
              37.2639
            ],
            [
              9.5917,
              37.2806
            ],
            [
              9.6181,
              37.2931
            ],
            [
              9.6458,
              37.3014
            ],
            [
              9.675,
              37.3042
            ],
            [
              9.7042,
              37.3028
            ],
            [
              9.7319,
              37.2972
            ],
            [
              9.7583,
              37.2875
            ],
            [
              9.7819,
              37.2736
            ],
            [
              9.8028,
              37.2569
            ],
            [
              9.8194,
              37.2375
            ],
            [
              9.8306,
              37.2153
            ],
            [
              9.8375,
              37.1917
            ],
            [
              9.8389,
              37.1681
            ],
            [
              9.8361,
              37.1444
            ],
            [
              9.8278,
              37.1222
            ],
            [
              9.8153,
              37.1028
            ],
            [
              9.7986,
              37.0861
            ],
            [
              9.7792,
              37.0736
            ],
            [
              9.7569,
              37.0653
            ],
            [
              9.7333,
              37.0611
            ],
            [
              9.7097,
              37.0611
            ],
            [
              9.6875,
              37.0653
            ],
            [
              9.6667,
              37.0736
            ],
            [
              9.6486,
              37.0861
            ],
            [
              9.6347,
              37.1014
            ],
            [
              9.625,
              37.1181
            ],
            [
              9.6194,
              37.1375
            ],
            [
              9.6194,
              37.1569
            ],
            [
              9.6236,
              37.1764
            ],
            [
              9.6319,
              37.1944
            ],
            [
              9.6458,
              37.2111
            ],
            [
              9.6625,
              37.2236
            ],
            [
              9.6819,
              37.2333
            ],
            [
              9.5333,
              37.3472
            ]
          ]
        ]
      }
    },
    {
      "type": "Feature",
      "properties": {
        "name": "Béja",
        "name_ar": "باجة"
      },
      "geometry": {
        "type": "Polygon",
        "coordinates": [
          [
            [
              8.75,
              37
            ],
            [
              8.7819,
              37.0208
            ],
            [
              8.8167,
              37.0375
            ],
            [
              8.8528,
              37.0486
            ],
            [
              8.8903,
              37.0542
            ],
            [
              8.9278,
              37.0542
            ],
            [
              8.9653,
              37.0486
            ],
            [
              9,
              37.0375
            ],
            [
              9.0319,
              37.0208
            ],
            [
              9.0597,
              37
            ],
            [
              9.0819,
              36.9764
            ],
            [
              9.0986,
              36.95
            ],
            [
              9.1097,
              36.9222
            ],
            [
              9.1139,
              36.8931
            ],
            [
              9.1111,
              36.8639
            ],
            [
              9.1014,
              36.8361
            ],
            [
              9.0861,
              36.8097
            ],
            [
              9.0653,
              36.7875
            ],
            [
              9.0403,
              36.7694
            ],
            [
              9.0125,
              36.7556
            ],
            [
              8.9833,
              36.7458
            ],
            [
              8.9528,
              36.7403
            ],
            [
              8.9222,
              36.7389
            ],
            [
              8.8917,
              36.7417
            ],
            [
              8.8625,
              36.7486
            ],
            [
              8.8347,
              36.7597
            ],
            [
              8.8097,
              36.775
            ],
            [
              8.7875,
              36.7931
            ],
            [
              8.7694,
              36.8139
            ],
            [
              8.7556,
              36.8375
            ],
            [
              8.7472,
              36.8625
            ],
            [
              8.7431,
              36.8889
            ],
            [
              8.7444,
              36.9153
            ],
            [
              8.75,
              37
            ]
          ]
        ]
      }
    },
    {
      "type": "Feature",
      "properties": {
        "name": "Jendouba",
        "name_ar": "جندوبة"
      },
      "geometry": {
        "type": "Polygon",
        "coordinates": [
          [
            [
              8.2083,
              36.9694
            ],
            [
              8.2472,
              36.9847
            ],
            [
              8.2875,
              36.9944
            ],
            [
              8.3278,
              36.9986
            ],
            [
              8.3681,
              36.9972
            ],
            [
              8.4083,
              36.9903
            ],
            [
              8.4458,
              36.9778
            ],
            [
              8.4806,
              36.9597
            ],
            [
              8.5111,
              36.9375
            ],
            [
              8.5361,
              36.9111
            ],
            [
              8.5556,
              36.8819
            ],
            [
              8.5681,
              36.85
            ],
            [
              8.5736,
              36.8167
            ],
            [
              8.5722,
              36.7833
            ],
            [
              8.5639,
              36.7514
            ],
            [
              8.5486,
              36.7222
            ],
            [
              8.5278,
              36.6972
            ],
            [
              8.5014,
              36.6764
            ],
            [
              8.4722,
              36.6597
            ],
            [
              8.4403,
              36.6486
            ],
            [
              8.4083,
              36.6417
            ],
            [
              8.375,
              36.6389
            ],
            [
              8.3417,
              36.6417
            ],
            [
              8.3097,
              36.6486
            ],
            [
              8.2806,
              36.6597
            ],
            [
              8.2542,
              36.675
            ],
            [
              8.2319,
              36.6944
            ],
            [
              8.2139,
              36.7167
            ],
            [
              8.2,
              36.7417
            ],
            [
              8.1917,
              36.7681
            ],
            [
              8.1889,
              36.7958
            ],
            [
              8.1917,
              36.8236
            ],
            [
              8.1986,
              36.8514
            ],
            [
              8.2111,
              36.8778
            ],
            [
              8.2083,
              36.9694
            ]
          ]
        ]
      }
    },
    {
      "type": "Feature",
      "properties": {
        "name": "Le Kef",
        "name_ar": "الكاف"
      },
      "geometry": {
        "type": "Polygon",
        "coordinates": [
          [
            [
              8.2542,
              36.675
            ],
            [
              8.2806,
              36.6597
            ],
            [
              8.3097,
              36.6486
            ],
            [
              8.3417,
              36.6417
            ],
            [
              8.375,
              36.6389
            ],
            [
              8.4083,
              36.6417
            ],
            [
              8.4403,
              36.6486
            ],
            [
              8.4722,
              36.6597
            ],
            [
              8.5014,
              36.6764
            ],
            [
              8.5278,
              36.6972
            ],
            [
              8.5486,
              36.7222
            ],
            [
              8.5639,
              36.7514
            ],
            [
              8.5722,
              36.7833
            ],
            [
              8.5736,
              36.8167
            ],
            [
              8.5681,
              36.85
            ],
            [
              8.5556,
              36.8819
            ],
            [
              8.5361,
              36.9111
            ],
            [
              8.5111,
              36.9375
            ],
            [
              8.4806,
              36.9597
            ],
            [
              8.4458,
              36.9778
            ],
            [
              8.4083,
              36.9903
            ],
            [
              8.3681,
              36.9972
            ],
            [
              8.3278,
              36.9986
            ],
            [
              8.2875,
              36.9944
            ],
            [
              8.2472,
              36.9847
            ],
            [
              8.2083,
              36.9694
            ],
            [
              8.1819,
              36.9486
            ],
            [
              8.1611,
              36.9236
            ],
            [
              8.1458,
              36.8958
            ],
            [
              8.1361,
              36.8667
            ],
            [
              8.1333,
              36.8361
            ],
            [
              8.1389,
              36.8056
            ],
            [
              8.1889,
              36.7958
            ],
            [
              8.1917,
              36.7681
            ],
            [
              8.2,
              36.7417
            ],
            [
              8.2139,
              36.7167
            ],
            [
              8.2319,
              36.6944
            ],
            [
              8.2542,
              36.675
            ]
          ]
        ]
      }
    },
    {
      "type": "Feature",
      "properties": {
        "name": "Siliana",
        "name_ar": "سليانة"
      },
      "geometry": {
        "type": "Polygon",
        "coordinates": [
          [
            [
              8.75,
              37
            ],
            [
              8.7444,
              36.9153
            ],
            [
              8.7431,
              36.8889
            ],
            [
              8.7472,
              36.8625
            ],
            [
              8.7556,
              36.8375
            ],
            [
              8.7694,
              36.8139
            ],
            [
              8.7875,
              36.7931
            ],
            [
              8.8097,
              36.775
            ],
            [
              8.8347,
              36.7597
            ],
            [
              8.8625,
              36.7486
            ],
            [
              8.8917,
              36.7417
            ],
            [
              8.9222,
              36.7389
            ],
            [
              8.9528,
              36.7403
            ],
            [
              8.9833,
              36.7458
            ],
            [
              9.0125,
              36.7556
            ],
            [
              9.0403,
              36.7694
            ],
            [
              9.0653,
              36.7875
            ],
            [
              9.0861,
              36.8097
            ],
            [
              9.1014,
              36.8361
            ],
            [
              9.1111,
              36.8639
            ],
            [
              9.1139,
              36.8931
            ],
            [
              9.1097,
              36.9222
            ],
            [
              9.0986,
              36.95
            ],
            [
              9.0819,
              36.9764
            ],
            [
              9.0597,
              37
            ],
            [
              9.075,
              36.9736
            ],
            [
              9.0833,
              36.9444
            ],
            [
              9.0833,
              36.9153
            ],
            [
              9.0764,
              36.8875
            ],
            [
              9.0625,
              36.8625
            ],
            [
              9.0431,
              36.8403
            ],
            [
              9.0194,
              36.8208
            ],
            [
              8.9917,
              36.8056
            ],
            [
              8.9625,
              36.7944
            ],
            [
              8.9319,
              36.7875
            ],
            [
              8.9014,
              36.7847
            ],
            [
              8.8708,
              36.7861
            ],
            [
              8.8403,
              36.7917
            ],
            [
              8.8111,
              36.8014
            ],
            [
              8.7847,
              36.8153
            ],
            [
              8.7611,
              36.8333
            ],
            [
              8.7417,
              36.8542
            ],
            [
              8.7264,
              36.8778
            ],
            [
              8.7153,
              36.9028
            ],
            [
              8.7097,
              36.9292
            ],
            [
              8.7097,
              36.9569
            ],
            [
              8.7153,
              36.9819
            ],
            [
              8.75,
              37
            ]
          ]
        ]
      }
    },
    {
      "type": "Feature",
      "properties": {
        "name": "Zaghouan",
        "name_ar": "زغوان"
      },
      "geometry": {
        "type": "Polygon",
        "coordinates": [
          [
            [
              9.8944,
              36.8208
            ],
            [
              9.9139,
              36.8125
            ],
            [
              9.9361,
              36.8083
            ],
            [
              9.9583,
              36.8083
            ],
            [
              9.9806,
              36.8125
            ],
            [
              10,
              36.8208
            ],
            [
              10.0208,
              36.8347
            ],
            [
              10.0375,
              36.8514
            ],
            [
              10.05,
              36.8708
            ],
            [
              10.0556,
              36.8917
            ],
            [
              10.0556,
              36.9139
            ],
            [
              10.0486,
              36.9347
            ],
            [
              10.0361,
              36.9528
            ],
            [
              10.0181,
              36.9681
            ],
            [
              9.9958,
              36.9792
            ],
            [
              9.9722,
              36.9847
            ],
            [
              9.9486,
              36.9847
            ],
            [
              9.9264,
              36.9792
            ],
            [
              9.9069,
              36.9681
            ],
            [
              9.8903,
              36.9528
            ],
            [
              9.8792,
              36.9347
            ],
            [
              9.8736,
              36.9153
            ],
            [
              9.8736,
              36.8944
            ],
            [
              9.8792,
              36.875
            ],
            [
              9.8903,
              36.8569
            ],
            [
              9.8944,
              36.8208
            ]
          ]
        ]
      }
    },
    {
      "type": "Feature",
      "properties": {
        "name": "Sousse",
        "name_ar": "سوسة"
      },
      "geometry": {
        "type": "Polygon",
        "coordinates": [
          [
            [
              10.2597,
              36.2569
            ],
            [
              10.3014,
              36.2653
            ],
            [
              10.3417,
              36.2806
            ],
            [
              10.3778,
              36.3014
            ],
            [
              10.4097,
              36.3278
            ],
            [
              10.4361,
              36.3583
            ],
            [
              10.4556,
              36.3917
            ],
            [
              10.4694,
              36.4278
            ],
            [
              10.4764,
              36.4653
            ],
            [
              10.4764,
              36.5028
            ],
            [
              10.4694,
              36.5403
            ],
            [
              10.4556,
              36.5764
            ],
            [
              10.4361,
              36.6097
            ],
            [
              10.4111,
              36.6389
            ],
            [
              10.3819,
              36.6639
            ],
            [
              10.3486,
              36.6833
            ],
            [
              10.3125,
              36.6972
            ],
            [
              10.275,
              36.7042
            ],
            [
              10.2375,
              36.7042
            ],
            [
              10.2014,
              36.6972
            ],
            [
              10.1667,
              36.6833
            ],
            [
              10.1361,
              36.6639
            ],
            [
              10.1097,
              36.6389
            ],
            [
              10.0903,
              36.6097
            ],
            [
              10.0764,
              36.5764
            ],
            [
              10.0694,
              36.5403
            ],
            [
              10.0694,
              36.5028
            ],
            [
              10.0764,
              36.4653
            ],
            [
              10.0903,
              36.4278
            ],
            [
              10.1097,
              36.3917
            ],
            [
              10.1361,
              36.3583
            ],
            [
              10.1667,
              36.3278
            ],
            [
              10.2014,
              36.3014
            ],
            [
              10.2375,
              36.2806
            ],
            [
              10.2597,
              36.2569
            ]
          ]
        ]
      }
    },
    {
      "type": "Feature",
      "properties": {
        "name": "Monastir",
        "name_ar": "المنستير"
      },
      "geometry": {
        "type": "Polygon",
        "coordinates": [
          [
            [
              10.7569,
              35.9306
            ],
            [
              10.7847,
              35.9458
            ],
            [
              10.8097,
              35.9653
            ],
            [
              10.8306,
              35.9889
            ],
            [
              10.8472,
              36.0153
            ],
            [
              10.8597,
              36.0431
            ],
            [
              10.8653,
              36.0722
            ],
            [
              10.8653,
              36.1014
            ],
            [
              10.8583,
              36.1306
            ],
            [
              10.8458,
              36.1583
            ],
            [
              10.8278,
              36.1833
            ],
            [
              10.8056,
              36.2042
            ],
            [
              10.7806,
              36.2208
            ],
            [
              10.7528,
              36.2333
            ],
            [
              10.7236,
              36.2403
            ],
            [
              10.6944,
              36.2417
            ],
            [
              10.6653,
              36.2375
            ],
            [
              10.6375,
              36.2278
            ],
            [
              10.6125,
              36.2139
            ],
            [
              10.5903,
              36.1958
            ],
            [
              10.5722,
              36.1736
            ],
            [
              10.5597,
              36.1486
            ],
            [
              10.5528,
              36.1222
            ],
            [
              10.5514,
              36.0944
            ],
            [
              10.5556,
              36.0667
            ],
            [
              10.5653,
              36.0403
            ],
            [
              10.5806,
              36.0153
            ],
            [
              10.6,
              35.9931
            ],
            [
              10.6236,
              35.9736
            ],
            [
              10.65,
              35.9583
            ],
            [
              10.6778,
              35.9472
            ],
            [
              10.7069,
              35.9403
            ],
            [
              10.7361,
              35.9375
            ],
            [
              10.7569,
              35.9306
            ]
          ]
        ]
      }
    },
    {
      "type": "Feature",
      "properties": {
        "name": "Mahdia",
        "name_ar": "المهدية"
      },
      "geometry": {
        "type": "Polygon",
        "coordinates": [
          [
            [
              10.9972,
              35.4528
            ],
            [
              11.0361,
              35.4736
            ],
            [
              11.0708,
              35.4986
            ],
            [
              11.1006,
              35.5278
            ],
            [
              11.1236,
              35.5597
            ],
            [
              11.1403,
              35.5931
            ],
            [
              11.15,
              35.6278
            ],
            [
              11.1528,
              35.6639
            ],
            [
              11.1486,
              35.7
            ],
            [
              11.1375,
              35.7347
            ],
            [
              11.1194,
              35.7667
            ],
            [
              11.0958,
              35.7958
            ],
            [
              11.0667,
              35.8194
            ],
            [
              11.0333,
              35.8375
            ],
            [
              10.9972,
              35.8486
            ],
            [
              10.9597,
              35.8528
            ],
            [
              10.9222,
              35.85
            ],
            [
              10.8861,
              35.8403
            ],
            [
              10.8528,
              35.8244
            ],
            [
              10.8236,
              35.8028
            ],
            [
              10.7986,
              35.7764
            ],
            [
              10.7792,
              35.7458
            ],
            [
              10.7653,
              35.7125
            ],
            [
              10.7583,
              35.6778
            ],
            [
              10.7583,
              35.6417
            ],
            [
              10.7639,
              35.6069
            ],
            [
              10.775,
              35.5736
            ],
            [
              10.7917,
              35.5431
            ],
            [
              10.8139,
              35.5167
            ],
            [
              10.8403,
              35.4944
            ],
            [
              10.8694,
              35.4778
            ],
            [
              10.9,
              35.4653
            ],
            [
              10.9319,
              35.4583
            ],
            [
              10.9639,
              35.4569
            ],
            [
              10.9972,
              35.4528
            ]
          ]
        ]
      }
    },
    {
      "type": "Feature",
      "properties": {
        "name": "Kairouan",
        "name_ar": "القيروان"
      },
      "geometry": {
        "type": "Polygon",
        "coordinates": [
          [
            [
              9.3264,
              36.1972
            ],
            [
              9.3861,
              36.2097
            ],
            [
              9.4431,
              36.2278
            ],
            [
              9.4972,
              36.25
            ],
            [
              9.5472,
              36.2764
            ],
            [
              9.5917,
              36.3056
            ],
            [
              9.6306,
              36.3375
            ],
            [
              9.6625,
              36.3722
            ],
            [
              9.6875,
              36.4083
            ],
            [
              9.7042,
              36.4458
            ],
            [
              9.7125,
              36.4847
            ],
            [
              9.7125,
              36.5236
            ],
            [
              9.7042,
              36.5625
            ],
            [
              9.6875,
              36.6
            ],
            [
              9.6625,
              36.6361
            ],
            [
              9.6306,
              36.6694
            ],
            [
              9.5917,
              36.7
            ],
            [
              9.5472,
              36.7264
            ],
            [
              9.4972,
              36.7486
            ],
            [
              9.4431,
              36.7653
            ],
            [
              9.3861,
              36.7764
            ],
            [
              9.3264,
              36.7806
            ],
            [
              9.2667,
              36.7764
            ],
            [
              9.2097,
              36.7653
            ],
            [
              9.1569,
              36.7486
            ],
            [
              9.1083,
              36.7264
            ],
            [
              9.0653,
              36.7
            ],
            [
              9.0264,
              36.6694
            ],
            [
              8.9944,
              36.6361
            ],
            [
              8.9694,
              36.6
            ],
            [
              8.9528,
              36.5625
            ],
            [
              8.9444,
              36.5236
            ],
            [
              8.9444,
              36.4847
            ],
            [
              8.9528,
              36.4458
            ],
            [
              8.9694,
              36.4083
            ],
            [
              8.9944,
              36.3722
            ],
            [
              9.0264,
              36.3375
            ],
            [
              9.0653,
              36.3056
            ],
            [
              9.1083,
              36.2764
            ],
            [
              9.1569,
              36.25
            ],
            [
              9.2097,
              36.2278
            ],
            [
              9.2667,
              36.2097
            ],
            [
              9.3264,
              36.1972
            ]
          ]
        ]
      }
    },
    {
      "type": "Feature",
      "properties": {
        "name": "Kasserine",
        "name_ar": "القصرين"
      },
      "geometry": {
        "type": "Polygon",
        "coordinates": [
          [
            [
              7.9167,
              35.5556
            ],
            [
              8,
              35.5208
            ],
            [
              8.0833,
              35.4931
            ],
            [
              8.1667,
              35.4736
            ],
            [
              8.25,
              35.4625
            ],
            [
              8.3333,
              35.4597
            ],
            [
              8.4167,
              35.4653
            ],
            [
              8.5,
              35.4792
            ],
            [
              8.5833,
              35.5
            ],
            [
              8.6597,
              35.5278
            ],
            [
              8.7292,
              35.5625
            ],
            [
              8.7917,
              35.6028
            ],
            [
              8.8472,
              35.6486
            ],
            [
              8.8944,
              35.7
            ],
            [
              8.9333,
              35.7569
            ],
            [
              8.9625,
              35.8181
            ],
            [
              8.9819,
              35.8833
            ],
            [
              8.9903,
              35.9514
            ],
            [
              8.9875,
              36.0194
            ],
            [
              8.9736,
              36.0861
            ],
            [
              8.95,
              36.15
            ],
            [
              8.9153,
              36.2097
            ],
            [
              8.8722,
              36.2639
            ],
            [
              8.8208,
              36.3111
            ],
            [
              8.7625,
              36.35
            ],
            [
              8.7,
              36.3806
            ],
            [
              8.6333,
              36.4014
            ],
            [
              8.5625,
              36.4125
            ],
            [
              8.4903,
              36.4139
            ],
            [
              8.4167,
              36.4042
            ],
            [
              8.3444,
              36.3847
            ],
            [
              8.275,
              36.3542
            ],
            [
              8.2097,
              36.3139
            ],
            [
              8.1514,
              36.2653
            ],
            [
              8.1,
              36.2097
            ],
            [
              8.0556,
              36.1486
            ],
            [
              8.0194,
              36.0833
            ],
            [
              7.9903,
              36.0153
            ],
            [
              7.9694,
              35.9444
            ],
            [
              7.9583,
              35.8722
            ],
            [
              7.9583,
              35.7986
            ],
            [
              7.9694,
              35.7264
            ],
            [
              7.9167,
              35.5556
            ]
          ]
        ]
      }
    },
    {
      "type": "Feature",
      "properties": {
        "name": "Sidi Bouzid",
        "name_ar": "سيدي بوزيد"
      },
      "geometry": {
        "type": "Polygon",
        "coordinates": [
          [
            [
              8.9903,
              35.9514
            ],
            [
              8.9875,
              36.0194
            ],
            [
              8.9736,
              36.0861
            ],
            [
              8.95,
              36.15
            ],
            [
              8.9153,
              36.2097
            ],
            [
              9.0264,
              36.3375
            ],
            [
              9.0653,
              36.3056
            ],
            [
              9.1083,
              36.2764
            ],
            [
              9.1569,
              36.25
            ],
            [
              9.2097,
              36.2278
            ],
            [
              9.2667,
              36.2097
            ],
            [
              9.3264,
              36.1972
            ],
            [
              9.3264,
              36.1667
            ],
            [
              9.3194,
              36.1375
            ],
            [
              9.3056,
              36.1097
            ],
            [
              9.2861,
              36.0847
            ],
            [
              9.2611,
              36.0625
            ],
            [
              9.2333,
              36.0444
            ],
            [
              9.2028,
              36.0306
            ],
            [
              9.1708,
              36.0208
            ],
            [
              9.1375,
              36.0153
            ],
            [
              9.1042,
              36.0153
            ],
            [
              9.0722,
              36.0194
            ],
            [
              9.0417,
              36.0278
            ],
            [
              9.0139,
              36.0417
            ],
            [
              8.9889,
              36.0597
            ],
            [
              8.9667,
              36.0833
            ],
            [
              8.9903,
              35.9514
            ]
          ]
        ]
      }
    },
    {
      "type": "Feature",
      "properties": {
        "name": "Sfax",
        "name_ar": "صفاقس"
      },
      "geometry": {
        "type": "Polygon",
        "coordinates": [
          [
            [
              10.0139,
              35.3681
            ],
            [
              10.0681,
              35.3597
            ],
            [
              10.1222,
              35.3556
            ],
            [
              10.1764,
              35.3556
            ],
            [
              10.2292,
              35.3611
            ],
            [
              10.2806,
              35.3722
            ],
            [
              10.3292,
              35.3889
            ],
            [
              10.375,
              35.4097
            ],
            [
              10.4153,
              35.4347
            ],
            [
              10.45,
              35.4639
            ],
            [
              10.4778,
              35.4972
            ],
            [
              10.4972,
              35.5319
            ],
            [
              10.5083,
              35.5681
            ],
            [
              10.5111,
              35.6056
            ],
            [
              10.5056,
              35.6431
            ],
            [
              10.4917,
              35.6792
            ],
            [
              10.4694,
              35.7139
            ],
            [
              10.4389,
              35.7444
            ],
            [
              10.4028,
              35.7708
            ],
            [
              10.3611,
              35.7903
            ],
            [
              10.3167,
              35.8042
            ],
            [
              10.2708,
              35.8097
            ],
            [
              10.2236,
              35.8069
            ],
            [
              10.1778,
              35.7958
            ],
            [
              10.1333,
              35.7764
            ],
            [
              10.0931,
              35.7486
            ],
            [
              10.0583,
              35.7153
            ],
            [
              10.0306,
              35.675
            ],
            [
              10.0097,
              35.6319
            ],
            [
              9.9972,
              35.5847
            ],
            [
              9.9944,
              35.5375
            ],
            [
              10.0014,
              35.4903
            ],
            [
              10.0139,
              35.3681
            ]
          ]
        ]
      }
    },
    {
      "type": "Feature",
      "properties": {
        "name": "Gafsa",
        "name_ar": "قفصة"
      },
      "geometry": {
        "type": "Polygon",
        "coordinates": [
          [
            [
              7.9167,
              35.5556
            ],
            [
              7.9694,
              35.7264
            ],
            [
              7.9583,
              35.7986
            ],
            [
              7.9583,
              35.8722
            ],
            [
              7.9694,
              35.9444
            ],
            [
              7.9903,
              36.0153
            ],
            [
              8.0194,
              36.0833
            ],
            [
              8.0556,
              36.1486
            ],
            [
              8.1,
              36.2097
            ],
            [
              8.1514,
              36.2653
            ],
            [
              8.2097,
              36.3139
            ],
            [
              8.275,
              36.3542
            ],
            [
              8.3444,
              36.3847
            ],
            [
              8.4167,
              36.4042
            ],
            [
              8.4903,
              36.4139
            ],
            [
              8.5625,
              36.4125
            ],
            [
              8.6333,
              36.4014
            ],
            [
              8.7,
              36.3806
            ],
            [
              8.7625,
              36.35
            ],
            [
              8.6597,
              35.5278
            ],
            [
              8.5,
              35.4792
            ],
            [
              8.4167,
              35.4653
            ],
            [
              8.3333,
              35.4597
            ],
            [
              8.25,
              35.4625
            ],
            [
              8.1667,
              35.4736
            ],
            [
              8.0833,
              35.4931
            ],
            [
              8,
              35.5208
            ],
            [
              7.9167,
              35.5556
            ]
          ]
        ]
      }
    },
    {
      "type": "Feature",
      "properties": {
        "name": "Gabès",
        "name_ar": "قابس"
      },
      "geometry": {
        "type": "Polygon",
        "coordinates": [
          [
            [
              8.9444,
              34.0833
            ],
            [
              9.0139,
              34.0972
            ],
            [
              9.0833,
              34.1167
            ],
            [
              9.1486,
              34.1417
            ],
            [
              9.2097,
              34.1722
            ],
            [
              9.2639,
              34.2069
            ],
            [
              9.3111,
              34.2458
            ],
            [
              9.35,
              34.2875
            ],
            [
              9.3806,
              34.3333
            ],
            [
              9.4014,
              34.3806
            ],
            [
              9.4125,
              34.4292
            ],
            [
              9.4139,
              34.4792
            ],
            [
              9.4042,
              34.5278
            ],
            [
              9.3847,
              34.5764
            ],
            [
              9.3542,
              34.6208
            ],
            [
              9.3139,
              34.6611
            ],
            [
              9.2653,
              34.6944
            ],
            [
              9.2097,
              34.7222
            ],
            [
              9.15,
              34.7417
            ],
            [
              9.0875,
              34.7528
            ],
            [
              9.0222,
              34.7556
            ],
            [
              8.9583,
              34.75
            ],
            [
              8.8958,
              34.7361
            ],
            [
              8.8361,
              34.7139
            ],
            [
              8.7819,
              34.6847
            ],
            [
              8.7333,
              34.65
            ],
            [
              8.6917,
              34.6097
            ],
            [
              8.6583,
              34.5653
            ],
            [
              8.6333,
              34.5167
            ],
            [
              8.6167,
              34.4653
            ],
            [
              8.6097,
              34.4139
            ],
            [
              8.6125,
              34.3611
            ],
            [
              8.6236,
              34.3097
            ],
            [
              8.6431,
              34.2611
            ],
            [
              8.6708,
              34.2167
            ],
            [
              8.7056,
              34.1778
            ],
            [
              8.7444,
              34.1444
            ],
            [
              8.7875,
              34.1181
            ],
            [
              8.8333,
              34.0986
            ],
            [
              8.8806,
              34.0861
            ],
            [
              8.9444,
              34.0833
            ]
          ]
        ]
      }
    },
    {
      "type": "Feature",
      "properties": {
        "name": "Médenine",
        "name_ar": "مدنين"
      },
      "geometry": {
        "type": "Polygon",
        "coordinates": [
          [
            [
              10.1667,
              33.3472
            ],
            [
              10.2361,
              33.3681
            ],
            [
              10.3028,
              33.3944
            ],
            [
              10.3639,
              33.4264
            ],
            [
              10.4194,
              33.4625
            ],
            [
              10.4681,
              33.5028
            ],
            [
              10.5083,
              33.5458
            ],
            [
              10.5403,
              33.5917
            ],
            [
              10.5625,
              33.6389
            ],
            [
              10.575,
              33.6875
            ],
            [
              10.575,
              33.7375
            ],
            [
              10.5639,
              33.7861
            ],
            [
              10.5417,
              33.8333
            ],
            [
              10.5097,
              33.8764
            ],
            [
              10.4681,
              33.9139
            ],
            [
              10.4181,
              33.9444
            ],
            [
              10.3625,
              33.9681
            ],
            [
              10.3028,
              33.9833
            ],
            [
              10.2417,
              33.9903
            ],
            [
              10.1792,
              33.9889
            ],
            [
              10.1181,
              33.9778
            ],
            [
              10.0597,
              33.9583
            ],
            [
              10.0056,
              33.9306
            ],
            [
              9.9569,
              33.8958
            ],
            [
              9.9153,
              33.8556
            ],
            [
              9.8806,
              33.8111
            ],
            [
              9.8556,
              33.7625
            ],
            [
              9.8403,
              33.7111
            ],
            [
              9.8347,
              33.6583
            ],
            [
              9.8403,
              33.6056
            ],
            [
              9.8556,
              33.5542
            ],
            [
              9.8806,
              33.5056
            ],
            [
              9.9153,
              33.4625
            ],
            [
              9.9569,
              33.4222
            ],
            [
              10.0056,
              33.3889
            ],
            [
              10.0597,
              33.3625
            ],
            [
              10.1181,
              33.3431
            ],
            [
              10.1667,
              33.3472
            ]
          ]
        ]
      }
    },
    {
      "type": "Feature",
      "properties": {
        "name": "Tataouine",
        "name_ar": "تطاوين"
      },
      "geometry": {
        "type": "Polygon",
        "coordinates": [
          [
            [
              9,
              33
            ],
            [
              9.1111,
              32.9583
            ],
            [
              9.2222,
              32.9167
            ],
            [
              9.3333,
              32.875
            ],
            [
              9.4444,
              32.8333
            ],
            [
              9.5556,
              32.8333
            ],
            [
              9.6667,
              32.8333
            ],
            [
              9.7778,
              32.8333
            ],
            [
              9.8889,
              32.8333
            ],
            [
              10,
              32.8333
            ],
            [
              10.1111,
              32.8333
            ],
            [
              10.2222,
              32.875
            ],
            [
              10.3333,
              32.9583
            ],
            [
              10.4444,
              33
            ],
            [
              10.5,
              33.0833
            ],
            [
              10.5,
              33.1667
            ],
            [
              10.5,
              33.25
            ],
            [
              10.4181,
              33.2639
            ],
            [
              10.3625,
              33.2417
            ],
            [
              10.3028,
              33.225
            ],
            [
              10.2417,
              33.2125
            ],
            [
              10.1792,
              33.2056
            ],
            [
              10.1181,
              33.2028
            ],
            [
              10.0597,
              33.2056
            ],
            [
              10.0056,
              33.2125
            ],
            [
              9.9569,
              33.225
            ],
            [
              9.9153,
              33.2417
            ],
            [
              9.8806,
              33.2639
            ],
            [
              9.8556,
              33.2903
            ],
            [
              9.8403,
              33.3208
            ],
            [
              9.8347,
              33.3542
            ],
            [
              9.8347,
              33.5542
            ],
            [
              9.8556,
              33.5056
            ],
            [
              9.8806,
              33.4625
            ],
            [
              9.9153,
              33.4222
            ],
            [
              9.9569,
              33.3889
            ],
            [
              10.0056,
              33.3625
            ],
            [
              9.8806,
              33.3111
            ],
            [
              9.8556,
              33.2625
            ],
            [
              9.8403,
              33.2111
            ],
            [
              9.8347,
              33.1597
            ],
            [
              9.8347,
              33.1083
            ],
            [
              9.8403,
              33.0569
            ],
            [
              9.8556,
              33.0083
            ],
            [
              9.8806,
              32.9639
            ],
            [
              9.9153,
              32.9236
            ],
            [
              9.9569,
              32.8903
            ],
            [
              10.0056,
              32.8625
            ],
            [
              9.4444,
              32.8333
            ],
            [
              9.3333,
              32.8333
            ],
            [
              9.2222,
              32.8333
            ],
            [
              9.1111,
              32.8333
            ],
            [
              9,
              32.8333
            ],
            [
              8.8889,
              32.8333
            ],
            [
              8.8889,
              32.9167
            ],
            [
              8.8889,
              33
            ],
            [
              9,
              33
            ]
          ]
        ]
      }
    },
    {
      "type": "Feature",
      "properties": {
        "name": "Tozeur",
        "name_ar": "توزر"
      },
      "geometry": {
        "type": "Polygon",
        "coordinates": [
          [
            [
              7.9167,
              34
            ],
            [
              8,
              33.9583
            ],
            [
              8.0833,
              33.9167
            ],
            [
              8.1667,
              33.875
            ],
            [
              8.25,
              33.8333
            ],
            [
              8.3333,
              33.8333
            ],
            [
              8.4167,
              33.8333
            ],
            [
              8.5,
              33.8333
            ],
            [
              8.5833,
              33.875
            ],
            [
              8.6597,
              33.9278
            ],
            [
              8.7292,
              33.9875
            ],
            [
              8.7917,
              34.0528
            ],
            [
              8.8472,
              34.1236
            ],
            [
              8.8944,
              34.2
            ],
            [
              8.9333,
              34.2819
            ],
            [
              8.9444,
              34.0833
            ],
            [
              8.8806,
              34.0861
            ],
            [
              8.8333,
              34.0986
            ],
            [
              8.7875,
              34.1181
            ],
            [
              8.7444,
              34.1444
            ],
            [
              8.7056,
              34.1778
            ],
            [
              8.6708,
              34.2167
            ],
            [
              8.6431,
              34.2611
            ],
            [
              8.6236,
              34.3097
            ],
            [
              8.6125,
              34.3611
            ],
            [
              8.6097,
              34.4139
            ],
            [
              8.5833,
              34.4028
            ],
            [
              8.5,
              34.3611
            ],
            [
              8.4167,
              34.3194
            ],
            [
              8.3333,
              34.2778
            ],
            [
              8.25,
              34.2361
            ],
            [
              8.1667,
              34.1944
            ],
            [
              8.0833,
              34.1528
            ],
            [
              8,
              34.1111
            ],
            [
              7.9167,
              34.0694
            ],
            [
              7.9167,
              34
            ]
          ]
        ]
      }
    },
    {
      "type": "Feature",
      "properties": {
        "name": "Kébili",
        "name_ar": "قبلي"
      },
      "geometry": {
        "type": "Polygon",
        "coordinates": [
          [
            [
              8.6333,
              34
            ],
            [
              8.7,
              34.0208
            ],
            [
              8.7625,
              34.0486
            ],
            [
              8.8194,
              34.0833
            ],
            [
              8.8806,
              34.0861
            ],
            [
              8.9444,
              34.0833
            ],
            [
              8.9333,
              34.2819
            ],
            [
              8.9625,
              34.3681
            ],
            [
              8.9819,
              34.4583
            ],
            [
              8.9903,
              34.5514
            ],
            [
              8.9875,
              34.6458
            ],
            [
              8.9736,
              34.7375
            ],
            [
              8.95,
              34.8264
            ],
            [
              8.9153,
              34.9097
            ],
            [
              8.8722,
              34.9875
            ],
            [
              8.8208,
              35.0583
            ],
            [
              8.7625,
              35.1222
            ],
            [
              8.7,
              35.1806
            ],
            [
              8.6333,
              35.2292
            ],
            [
              8.5625,
              35.2694
            ],
            [
              8.4903,
              35.3014
            ],
            [
              8.4167,
              35.3222
            ],
            [
              8.3444,
              35.3333
            ],
            [
              8.275,
              35.3333
            ],
            [
              8.2097,
              35.3222
            ],
            [
              8.1514,
              35.3014
            ],
            [
              8.0917,
              35.2694
            ],
            [
              8.0333,
              35.2292
            ],
            [
              7.9833,
              35.1806
            ],
            [
              7.9417,
              35.125
            ],
            [
              7.9083,
              35.0639
            ],
            [
              7.8833,
              34.9986
            ],
            [
              7.8667,
              34.9306
            ],
            [
              7.8583,
              34.8611
            ],
            [
              7.8583,
              34.7903
            ],
            [
              7.8667,
              34.7194
            ],
            [
              7.8833,
              34.6514
            ],
            [
              7.9083,
              34.5875
            ],
            [
              7.9417,
              34.5278
            ],
            [
              7.9833,
              34.4736
            ],
            [
              8.0333,
              34.4264
            ],
            [
              8.0917,
              34.3861
            ],
            [
              8.1514,
              34.3542
            ],
            [
              8.2097,
              34.3306
            ],
            [
              8.275,
              34.3153
            ],
            [
              8.3444,
              34.3083
            ],
            [
              8.4167,
              34.3194
            ],
            [
              8.5,
              34.3611
            ],
            [
              8.5833,
              34.4028
            ],
            [
              8.6097,
              34.4139
            ],
            [
              8.6125,
              34.3611
            ],
            [
              8.6236,
              34.3097
            ],
            [
              8.6431,
              34.2611
            ],
            [
              8.6708,
              34.2167
            ],
            [
              8.7056,
              34.1778
            ],
            [
              8.7444,
              34.1444
            ],
            [
              8.7875,
              34.1181
            ],
            [
              8.8333,
              34.0986
            ],
            [
              8.8806,
              34.0861
            ],
            [
              8.8194,
              34.0833
            ],
            [
              8.7625,
              34.0486
            ],
            [
              8.7,
              34.0208
            ],
            [
              8.6333,
              34
            ]
          ]
        ]
      }
    }
  ]
}